start=new Date('2023-03-12T00:00:00.000Z').valueOf();
sats=[{"PERIAPSIS":"546.261","MEAN_MOTION_DDOT":"0.0000000000000","LAUNCH_DATE":"2020-01-07","MEAN_MOTION":"15.06427832","PERIOD":"95.590","INCLINATION":"53.0519","BSTAR":"0.00271410000000","ECCENTRICITY":"0.00012530","OBJECT_TYPE":"PAYLOAD","RA_OF_ASC_NODE":"196.9609","MEAN_ELEMENT_THEORY":"SGP4","MEAN_MOTION_DOT":"0.00040408","TIME_SYSTEM":"UTC","NORAD_CAT_ID":"44947","SEMIMAJOR_AXIS":"6925.263","RCS_SIZE":"LARGE","DECAY_DATE":null,"ELEMENT_SET_NO":"999","ARG_OF_PERICENTER":"82.9859","MEAN_ANOMALY":"277.1273","FILE":"3857847","APOAPSIS":"547.996","GP_ID":"227885634","EPHEMERIS_TYPE":"0","OBJECT_NAME":"STARLINK-1116","OBJECT_ID":"2020-001AK","CLASSIFICATION_TYPE":"U","SITE":"AFETR","CENTER_NAME":"EARTH","REV_AT_EPOCH":"17526","REF_FRAME":"TEME","COUNTRY_CODE":"US","EPOCH":"2023-03-11T20:54:26.424288","TLE_LINE1":"1 44947U 20001AK  23070.87113917  .00040408  00000-0  27141-2 0  9993","TLE_LINE2":"2 44947  53.0519 196.9609 0001253  82.9859 277.1273 15.06427832175263"},{"GP_ID":"227886884","EPHEMERIS_TYPE":"0","OBJECT_NAME":"STARLINK-1122","OBJECT_ID":"2020-001AM","CLASSIFICATION_TYPE":"U","SITE":"AFETR","CENTER_NAME":"EARTH","REV_AT_EPOCH":"17525","REF_FRAME":"TEME","COUNTRY_CODE":"US","EPOCH":"2023-03-11T19:56:05.142912","TLE_LINE1":"1 44949U 20001AM  23070.83061508  .00008370  00000-0  57988-3 0  9994","TLE_LINE2":"2 44949  53.0529 197.1421 0001470 100.2438 259.8716 15.06416969175256","PERIAPSIS":"546.144","MEAN_MOTION_DDOT":"0.0000000000000","LAUNCH_DATE":"2020-01-07","MEAN_MOTION":"15.06416969","PERIOD":"95.591","BSTAR":"0.00057988000000","INCLINATION":"53.0529","ECCENTRICITY":"0.00014700","OBJECT_TYPE":"PAYLOAD","RA_OF_ASC_NODE":"197.1421","MEAN_ELEMENT_THEORY":"SGP4","MEAN_MOTION_DOT":"0.00008370","TIME_SYSTEM":"UTC","NORAD_CAT_ID":"44949","SEMIMAJOR_AXIS":"6925.297","RCS_SIZE":"LARGE","DECAY_DATE":null,"ELEMENT_SET_NO":"999","ARG_OF_PERICENTER":"100.2438","MEAN_ANOMALY":"259.8716","FILE":"3857847","APOAPSIS":"548.180"},{"SITE":"AFETR","CENTER_NAME":"EARTH","REV_AT_EPOCH":"17550","CLASSIFICATION_TYPE":"U","GP_ID":"227887134","OBJECT_NAME":"STARLINK-1125","EPHEMERIS_TYPE":"0","OBJECT_ID":"2020-001AN","TLE_LINE2":"2 44950  53.0578 178.6100 0006374 333.6168  26.4506 15.30376832175504","TLE_LINE1":"1 44950U 20001AN  23070.69000780  .00138869  00000-0  45866-2 0  9993","EPOCH":"2023-03-11T16:33:36.673920","REF_FRAME":"TEME","COUNTRY_CODE":"US","ECCENTRICITY":"0.00063740","OBJECT_TYPE":"PAYLOAD","BSTAR":"0.00458660000000","INCLINATION":"53.0578","LAUNCH_DATE":"2020-01-07","MEAN_MOTION":"15.30376832","PERIOD":"94.094","PERIAPSIS":"470.321","MEAN_MOTION_DDOT":"0.0000000000000","ELEMENT_SET_NO":"999","ARG_OF_PERICENTER":"333.6168","MEAN_ANOMALY":"26.4506","FILE":"3857847","APOAPSIS":"479.057","RCS_SIZE":"LARGE","DECAY_DATE":null,"MEAN_ELEMENT_THEORY":"SGP4","NORAD_CAT_ID":"44950","MEAN_MOTION_DOT":"0.00138869","TIME_SYSTEM":"UTC","SEMIMAJOR_AXIS":"6852.824","RA_OF_ASC_NODE":"178.6100"},{"GP_ID":"227885883","EPHEMERIS_TYPE":"0","OBJECT_NAME":"STARLINK-1126","OBJECT_ID":"2020-001AP","SITE":"AFETR","CENTER_NAME":"EARTH","REV_AT_EPOCH":"130","CLASSIFICATION_TYPE":"U","EPOCH":"2023-03-11T22:00:00.999936","REF_FRAME":"TEME","COUNTRY_CODE":"US","TLE_LINE2":"2 44951  53.0171 159.4131 0005750  10.2434  36.8835 15.30919435  1304","TLE_LINE1":"1 44951U 20001AP  23070.91667824  .00094227  00000-0  30826-2 0  9996","LAUNCH_DATE":"2020-01-07","MEAN_MOTION":"15.30919435","PERIOD":"94.061","PERIAPSIS":"469.130","MEAN_MOTION_DDOT":"0.0000000000000","ECCENTRICITY":"0.00057500","OBJECT_TYPE":"PAYLOAD","BSTAR":"0.00308260000000","INCLINATION":"53.0171","MEAN_ELEMENT_THEORY":"SGP4","NORAD_CAT_ID":"44951","MEAN_MOTION_DOT":"0.00094227","TIME_SYSTEM":"UTC","SEMIMAJOR_AXIS":"6851.205","RA_OF_ASC_NODE":"159.4131","ARG_OF_PERICENTER":"10.2434","ELEMENT_SET_NO":"999","FILE":"3857847","MEAN_ANOMALY":"36.8835","APOAPSIS":"477.009","RCS_SIZE":"LARGE","DECAY_DATE":null},{"DECAY_DATE":null,"RCS_SIZE":"LARGE","APOAPSIS":"547.567","MEAN_ANOMALY":"265.3836","FILE":"3857847","ARG_OF_PERICENTER":"94.7220","ELEMENT_SET_NO":"999","RA_OF_ASC_NODE":"196.9281","SEMIMAJOR_AXIS":"6925.295","MEAN_MOTION_DOT":"0.00040075","TIME_SYSTEM":"UTC","NORAD_CAT_ID":"44952","MEAN_ELEMENT_THEORY":"SGP4","INCLINATION":"53.0522","BSTAR":"0.00269280000000","OBJECT_TYPE":"PAYLOAD","ECCENTRICITY":"0.00005870","MEAN_MOTION_DDOT":"0.0000000000000","PERIAPSIS":"546.754","PERIOD":"95.591","MEAN_MOTION":"15.06417370","LAUNCH_DATE":"2020-01-07","TLE_LINE1":"1 44952U 20001AQ  23070.87850786  .00040075  00000-0  26928-2 0  9993","TLE_LINE2":"2 44952  53.0522 196.9281 0000587  94.7220 265.3836 15.06417370175261","COUNTRY_CODE":"US","REF_FRAME":"TEME","EPOCH":"2023-03-11T21:05:03.079104","CLASSIFICATION_TYPE":"U","REV_AT_EPOCH":"17526","CENTER_NAME":"EARTH","SITE":"AFETR","OBJECT_ID":"2020-001AQ","OBJECT_NAME":"STARLINK-1117","EPHEMERIS_TYPE":"0","GP_ID":"227886133"},{"CLASSIFICATION_TYPE":"U","SITE":"AFETR","CENTER_NAME":"EARTH","REV_AT_EPOCH":"17653","GP_ID":"227886385","EPHEMERIS_TYPE":"0","OBJECT_NAME":"STARLINK-1124","OBJECT_ID":"2020-001AR","TLE_LINE1":"1 44953U 20001AR  23070.76328620  .00003801  00000-0  27372-3 0  9990","TLE_LINE2":"2 44953  53.0527 197.4412 0001695 113.0991 247.0177 15.06432382176536","REF_FRAME":"TEME","COUNTRY_CODE":"US","EPOCH":"2023-03-11T18:19:07.927680","BSTAR":"0.00027372000000","INCLINATION":"53.0527","ECCENTRICITY":"0.00016950","OBJECT_TYPE":"PAYLOAD","PERIAPSIS":"545.940","MEAN_MOTION_DDOT":"0.0000000000000","LAUNCH_DATE":"2020-01-07","MEAN_MOTION":"15.06432382","PERIOD":"95.590","RCS_SIZE":"LARGE","DECAY_DATE":null,"ELEMENT_SET_NO":"999","ARG_OF_PERICENTER":"113.0991","MEAN_ANOMALY":"247.0177","FILE":"3857847","APOAPSIS":"548.288","RA_OF_ASC_NODE":"197.4412","MEAN_ELEMENT_THEORY":"SGP4","TIME_SYSTEM":"UTC","MEAN_MOTION_DOT":"0.00003801","NORAD_CAT_ID":"44953","SEMIMAJOR_AXIS":"6925.249"},{"GP_ID":"227886636","OBJECT_ID":"2020-001AS","EPHEMERIS_TYPE":"0","OBJECT_NAME":"STARLINK-1066","CLASSIFICATION_TYPE":"U","SITE":"AFETR","REV_AT_EPOCH":"17544","CENTER_NAME":"EARTH","REF_FRAME":"TEME","COUNTRY_CODE":"US","EPOCH":"2023-03-11T13:52:28.427520","TLE_LINE1":"1 44954U 20001AS  23070.57810680  .00006163  00000-0  43230-3 0  9997","TLE_LINE2":"2 44954  53.0535 178.2756 0001821 117.2015 242.9160 15.06398046175441","MEAN_MOTION_DDOT":"0.0000000000000","PERIAPSIS":"545.958","LAUNCH_DATE":"2020-01-07","PERIOD":"95.592","MEAN_MOTION":"15.06398046","BSTAR":"0.00043230000000","INCLINATION":"53.0535","OBJECT_TYPE":"PAYLOAD","ECCENTRICITY":"0.00018210","RA_OF_ASC_NODE":"178.2756","MEAN_ELEMENT_THEORY":"SGP4","SEMIMAJOR_AXIS":"6925.355","TIME_SYSTEM":"UTC","MEAN_MOTION_DOT":"0.00006163","NORAD_CAT_ID":"44954","DECAY_DATE":null,"RCS_SIZE":"LARGE","ARG_OF_PERICENTER":"117.2015","ELEMENT_SET_NO":"999","APOAPSIS":"548.481","FILE":"3857847","MEAN_ANOMALY":"242.9160"},{"ELEMENT_SET_NO":"999","ARG_OF_PERICENTER":"99.4328","MEAN_ANOMALY":"260.6798","FILE":"3857847","APOAPSIS":"548.050","RCS_SIZE":"LARGE","DECAY_DATE":null,"MEAN_ELEMENT_THEORY":"SGP4","MEAN_MOTION_DOT":"0.00000555","TIME_SYSTEM":"UTC","NORAD_CAT_ID":"44955","SEMIMAJOR_AXIS":"6925.346","RA_OF_ASC_NODE":"177.6443","ECCENTRICITY":"0.00012110","OBJECT_TYPE":"PAYLOAD","BSTAR":"0.00005614000000","INCLINATION":"53.0543","LAUNCH_DATE":"2020-01-07","MEAN_MOTION":"15.06400741","PERIOD":"95.592","PERIAPSIS":"546.373","MEAN_MOTION_DDOT":"0.0000000000000","TLE_LINE2":"2 44955  53.0543 177.6443 0001211  99.4328 260.6798 15.06400741175460","TLE_LINE1":"1 44955U 20001AT  23070.71817066  .00000555  00000-0  56140-4 0  9993","EPOCH":"2023-03-11T17:14:09.945024","REF_FRAME":"TEME","COUNTRY_CODE":"US","SITE":"AFETR","CENTER_NAME":"EARTH","REV_AT_EPOCH":"17546","CLASSIFICATION_TYPE":"U","GP_ID":"227885385","OBJECT_NAME":"STARLINK-1069","EPHEMERIS_TYPE":"0","OBJECT_ID":"2020-001AT"},{"TLE_LINE2":"2 44956  53.0540 177.6583 0001549 111.2507 248.8647 15.06394667175526","TLE_LINE1":"1 44956U 20001AU  23070.71354013  .00000316  00000-0  40111-4 0  9998","EPOCH":"2023-03-11T17:07:29.867232","REF_FRAME":"TEME","COUNTRY_CODE":"US","SITE":"AFETR","CENTER_NAME":"EARTH","REV_AT_EPOCH":"17552","CLASSIFICATION_TYPE":"U","GP_ID":"227885635","OBJECT_NAME":"STARLINK-1070","EPHEMERIS_TYPE":"0","OBJECT_ID":"2020-001AU","ARG_OF_PERICENTER":"111.2507","ELEMENT_SET_NO":"999","FILE":"3857847","MEAN_ANOMALY":"248.8647","APOAPSIS":"548.303","RCS_SIZE":"LARGE","DECAY_DATE":null,"MEAN_ELEMENT_THEORY":"SGP4","MEAN_MOTION_DOT":"0.00000316","TIME_SYSTEM":"UTC","NORAD_CAT_ID":"44956","SEMIMAJOR_AXIS":"6925.365","RA_OF_ASC_NODE":"177.6583","ECCENTRICITY":"0.00015490","OBJECT_TYPE":"PAYLOAD","INCLINATION":"53.0540","BSTAR":"0.00004011100000","LAUNCH_DATE":"2020-01-07","MEAN_MOTION":"15.06394667","PERIOD":"95.592","PERIAPSIS":"546.157","MEAN_MOTION_DDOT":"0.0000000000000"},{"TLE_LINE1":"1 44957U 20001AV  23070.67299983  .00032478  00000-0  21891-2 0  9994","TLE_LINE2":"2 44957  53.0547 177.8369 0001564  89.1003 271.0165 15.06401820175511","COUNTRY_CODE":"US","REF_FRAME":"TEME","EPOCH":"2023-03-11T16:09:07.185312","CLASSIFICATION_TYPE":"U","REV_AT_EPOCH":"17551","CENTER_NAME":"EARTH","SITE":"AFETR","OBJECT_ID":"2020-001AV","EPHEMERIS_TYPE":"0","OBJECT_NAME":"STARLINK-1074","GP_ID":"227886885","DECAY_DATE":null,"RCS_SIZE":"LARGE","APOAPSIS":"548.291","MEAN_ANOMALY":"271.0165","FILE":"3857847","ELEMENT_SET_NO":"999","ARG_OF_PERICENTER":"89.1003","RA_OF_ASC_NODE":"177.8369","SEMIMAJOR_AXIS":"6925.343","MEAN_MOTION_DOT":"0.00032478","NORAD_CAT_ID":"44957","TIME_SYSTEM":"UTC","MEAN_ELEMENT_THEORY":"SGP4","BSTAR":"0.00218910000000","INCLINATION":"53.0547","OBJECT_TYPE":"PAYLOAD","ECCENTRICITY":"0.00015640","MEAN_MOTION_DDOT":"0.0000000000000","PERIAPSIS":"546.125","PERIOD":"95.592","MEAN_MOTION":"15.06401820","LAUNCH_DATE":"2020-01-07"}];
